NORAD_CAT_ID,OBJECT_NAME,OBJECT_TYPE,EPOCH,MEAN_MOTION,ECCENTRICITY,INCLINATION,RA_OF_ASC_NODE,ARG_OF_PERICENTER,MEAN_ANOMALY,BSTAR,MEAN_MOTION_DOT,MEAN_MOTION_DDOT,TLE_LINE0,TLE_LINE1,TLE_LINE2,SEMIMAJOR_AXIS,PERIOD,APOGEE,PERIGEE,DECAYED
52115.0,STARLINK-3685,PAYLOAD,2024-02-20 14:49:30,15.08835981,0.000154,53.217,197.347,99.1864,260.9302,-7.8062e-05,-1.53e-05,0.0,0 STARLINK-3685,1 52115U 22029AD  24051.61771575 -.00001530  00000-0 -78062-4 0  9998,2 52115  53.2170 197.3470 0001540  99.1864 260.9302 15.08835981107853,6917.893,95.438,540.823,538.692,0.0
52115.0,STARLINK-3685,PAYLOAD,2024-02-20 16:24:53,15.08835549,0.0001478,53.2166,197.0505,95.4877,264.6283,0.0001857,2.668e-05,0.0,0 STARLINK-3685,1 52115U 22029AD  24051.68395808  .00002668  00000-0  18570-3 0  9994,2 52115  53.2166 197.0505 0001478  95.4877 264.6283 15.08835549107867,6917.894,95.438,540.781,538.737,0.0
52115.0,STARLINK-3685,PAYLOAD,2024-02-21 14:40:18,15.08857265,0.0001425,53.2168,192.8874,96.8254,263.2901,0.00078083,0.00012167,0.0,0 STARLINK-3685,1 52115U 22029AD  24052.61132068  .00012167  00000-0  78083-3 0  9995,2 52115  53.2168 192.8874 0001425  96.8254 263.2901 15.08857265108005,6917.828,95.436,540.678,538.707,0.0
52115.0,STARLINK-3685,PAYLOAD,2024-02-21 16:15:41,15.08861974,0.0001405,53.2168,192.5902,95.7707,264.3445,0.00091641,0.00014335,0.0,0 STARLINK-3685,1 52115U 22029AD  24052.67755949  .00014335  00000-0  91641-3 0  9994,2 52115  53.2168 192.5902 0001405  95.7707 264.3445 15.08861974108011,6917.813,95.436,540.65,538.706,0.0
52115.0,STARLINK-3685,PAYLOAD,2024-02-22 09:44:55,15.08850772,0.000143,53.217,189.3198,90.2576,269.858,0.00035968,5.443e-05,0.0,0 STARLINK-3685,1 52115U 22029AD  24053.40619923  .00005443  00000-0  35968-3 0  9997,2 52115  53.2170 189.3198 0001430  90.2576 269.8580 15.08850772108123,6917.847,95.437,540.702,538.723,0.0
52115.0,STARLINK-3685,PAYLOAD,2024-02-22 14:31:04,15.08846713,0.0001391,53.2173,188.4293,97.7252,262.3898,0.00014335,1.995e-05,0.0,0 STARLINK-3685,1 52115U 22029AD  24053.60491889  .00001995  00000-0  14335-3 0  9991,2 52115  53.2173 188.4293 0001391  97.7252 262.3898 15.08846713108154,6917.86,95.437,540.687,538.763,0.0
52115.0,STARLINK-3685,PAYLOAD,2024-02-22 16:06:28,15.08847186,0.0001376,53.2173,188.1317,96.512,263.6029,0.00015929,2.249e-05,0.0,0 STARLINK-3685,1 52115U 22029AD  24053.67115846  .00002249  00000-0  15929-3 0  9997,2 52115  53.2173 188.1317 0001376  96.5120 263.6029 15.08847186108168,6917.858,95.437,540.675,538.772,0.0
52115.0,STARLINK-3685,PAYLOAD,2024-02-23 14:21:52,15.08843713,0.0001408,53.2174,183.9677,97.0257,263.0895,3.3265e-05,2.42e-06,0.0,0 STARLINK-3685,1 52115U 22029AD  24054.59851889  .00000242  00000-0  33265-4 0  9998,2 52115  53.2174 183.9677 0001408  97.0257 263.0895 15.08843713108307,6917.869,95.437,540.708,538.76,0.0
52115.0,STARLINK-3685,PAYLOAD,2024-02-23 17:32:38,15.08845907,0.0001414,53.2175,183.373,92.8932,267.2222,0.00010201,1.336e-05,0.0,0 STARLINK-3685,1 52115U 22029AD  24054.73099821  .00001336  00000-0  10201-3 0  9993,2 52115  53.2175 183.3730 0001414  92.8932 267.2222 15.08845907108321,6917.862,95.437,540.706,538.749,0.0
52115.0,STARLINK-3685,PAYLOAD,2024-02-24 07:51:07,15.08831472,0.0001469,53.2176,180.6987,77.8651,282.2506,-3.2608e-05,-8.07e-06,0.0,0 STARLINK-3685,1 52115U 22029AD  24055.32716739 -.00000807  00000-0 -32608-4 0  9993,2 52115  53.2176 180.6987 0001469  77.8651 282.2506 15.08831472108411,6917.906,95.438,540.788,538.755,0.0
52115.0,STARLINK-3685,PAYLOAD,2024-02-24 14:12:39,15.08835555,0.000163,53.2179,179.5069,102.6433,257.4742,2.8683e-05,1.68e-06,0.0,0 STARLINK-3685,1 52115U 22029AD  24055.59212737  .00000168  00000-0  28683-4 0  9997,2 52115  53.2179 179.5069 0001630 102.6433 257.4742 15.08835555108453,6917.894,95.438,540.887,538.631,0.0
52115.0,STARLINK-3685,PAYLOAD,2024-02-25 12:28:02,15.0885284,0.0002042,53.2184,175.3439,135.3812,224.7344,0.00025825,3.826e-05,0.0,0 STARLINK-3685,1 52115U 22029AD  24056.51947848  .00003826  00000-0  25825-3 0  9996,2 52115  53.2184 175.3439 0002042 135.3812 224.7344 15.08852840108592,6917.841,95.437,541.119,538.294,0.0
52115.0,STARLINK-3685,PAYLOAD,2024-02-25 14:03:26,15.08853925,0.0001414,53.2167,175.0465,94.1505,265.9648,0.00040853,6.222e-05,0.0,0 STARLINK-3685,1 52115U 22029AD  24056.58572118  .00006222  00000-0  40853-3 0  9998,2 52115  53.2167 175.0465 0001414  94.1505 265.9648 15.08853925108603,6917.838,95.437,540.681,538.725,0.0
52115.0,STARLINK-3685,PAYLOAD,2024-02-25 15:38:49,15.08861884,0.0001443,53.2167,174.7497,86.6989,273.4169,0.00057492,8.879e-05,0.0,0 STARLINK-3685,1 52115U 22029AD  24056.65195911  .00008879  00000-0  57492-3 0  9995,2 52115  53.2167 174.7497 0001443  86.6989 273.4169 15.08861884108614,6917.813,95.436,540.677,538.68,0.0
52115.0,STARLINK-3685,PAYLOAD,2024-02-26 12:18:50,15.0884614,0.0001741,53.2181,170.8846,76.0909,284.0277,0.00013656,1.886e-05,0.0,0 STARLINK-3685,1 52115U 22029AD  24057.51308220  .00001886  00000-0  13656-3 0  9995,2 52115  53.2181 170.8846 0001741  76.0909 284.0277 15.08846140108741,6917.862,95.437,540.931,538.522,0.0
52115.0,STARLINK-3685,PAYLOAD,2024-02-26 13:54:13,15.0884781,0.0001758,53.2182,170.5862,87.1899,272.9295,0.00018692,2.689e-05,0.0,0 STARLINK-3685,1 52115U 22029AD  24057.57932159  .00002689  00000-0  18692-3 0  9992,2 52115  53.2182 170.5862 0001758  87.1899 272.9295 15.08847810108758,6917.857,95.437,540.938,538.505,0.0
52115.0,STARLINK-3685,PAYLOAD,2024-02-26 17:04:59,15.08853479,0.0001751,53.2181,169.9897,91.7204,268.3988,0.00028281,4.217e-05,0.0,0 STARLINK-3685,1 52115U 22029AD  24057.71179862  .00004217  00000-0  28281-3 0  9996,2 52115  53.2181 169.9897 0001751  91.7204 268.3988 15.08853479108779,6917.839,95.437,540.916,538.493,0.0
52115.0,STARLINK-3685,PAYLOAD,2024-02-27 12:09:37,15.08835058,0.0001423,53.2168,166.4229,83.3895,276.7259,-3.7987e-05,-8.92e-06,0.0,0 STARLINK-3685,1 52115U 22029AD  24058.50668560 -.00000892  00000-0 -37987-4 0  9993,2 52115  53.2168 166.4229 0001423  83.3895 276.7259 15.08835058108894,6917.895,95.438,540.745,538.776,0.0
52115.0,STARLINK-3685,PAYLOAD,2024-02-27 13:45:00,15.08835788,0.000145,53.2166,166.1251,82.2447,277.871,9.4658e-06,-1.37e-06,0.0,0 STARLINK-3685,1 52115U 22029AD  24058.57292587 -.00000137  00000-0  94658-5 0  9992,2 52115  53.2166 166.1251 0001450  82.2447 277.8710 15.08835788108901,6917.893,95.438,540.761,538.755,0.0
52115.0,STARLINK-3685,PAYLOAD,2024-02-27 16:55:47,15.08838819,0.0001427,53.2162,165.5286,83.9617,276.1537,0.00014478,2.017e-05,0.0,0 STARLINK-3685,1 52115U 22029AD  24058.70540555  .00002017  00000-0  14478-3 0  9996,2 52115  53.2162 165.5286 0001427  83.9617 276.1537 15.08838819108928,6917.884,95.438,540.736,538.762,0.0
52115.0,STARLINK-3685,PAYLOAD,2024-02-28 12:00:26,15.08820108,0.0002107,53.2183,161.9647,104.3027,255.8199,0.0001277,1.744e-05,0.0,0 STARLINK-3685,1 52115U 22029AD  24059.50031046  .00001744  00000-0  12770-3 0  9994,2 52115  53.2183 161.9647 0002107 104.3027 255.8199 15.08820108109045,6917.941,95.439,541.264,538.349,0.0
52115.0,STARLINK-3685,PAYLOAD,2024-02-28 13:35:49,15.08833167,0.0001562,53.2168,161.6635,79.6652,280.4516,0.0005538,8.535e-05,0.0,0 STARLINK-3685,1 52115U 22029AD  24059.56654868  .00008535  00000-0  55380-3 0  9992,2 52115  53.2168 161.6635 0001562  79.6652 280.4516 15.08833167109051,6917.901,95.438,540.847,538.686,0.0
52115.0,STARLINK-3685,PAYLOAD,2024-02-28 16:46:36,15.08834923,0.0001578,53.2169,161.069,80.8422,279.2748,0.00062888,9.733e-05,0.0,0 STARLINK-3685,1 52115U 22029AD  24059.69903021  .00009733  00000-0  62888-3 0  9996,2 52115  53.2169 161.0690 0001578  80.8422 279.2748 15.08834923109079,6917.896,95.438,540.853,538.669,0.0
52115.0,STARLINK-3685,PAYLOAD,2024-02-29 11:51:12,15.08885543,0.0001545,53.2166,157.5023,84.3017,275.8151,0.001274,0.00020071,0.0,0 STARLINK-3685,1 52115U 22029AD  24060.49389671  .00020071  00000-0  12740-2 0  9994,2 52115  53.2166 157.5023 0001545  84.3017 275.8151 15.08885543109196,6917.741,95.435,540.675,538.537,0.0
52115.0,STARLINK-3685,PAYLOAD,2024-02-29 13:26:35,15.08892762,0.0001489,53.2163,157.2044,81.6445,278.4716,0.0014436,0.00022795,0.0,0 STARLINK-3685,1 52115U 22029AD  24060.56013394  .00022795  00000-0  14436-2 0  9997,2 52115  53.2163 157.2044 0001489  81.6445 278.4716 15.08892762109204,6917.719,95.434,540.614,538.554,0.0
52115.0,STARLINK-3685,PAYLOAD,2024-02-29 22:58:54,15.08876388,0.0001633,53.2167,155.4204,77.3,282.8174,0.00078898,0.00012303,0.0,0 STARLINK-3685,1 52115U 22029AD  24060.95756948  .00012303  00000-0  78898-3 0  9996,2 52115  53.2167 155.4204 0001633  77.3000 282.8174 15.08876388109265,6917.769,95.435,540.764,538.504,0.0
52115.0,STARLINK-3685,PAYLOAD,2024-03-01 11:41:58,15.08852101,0.0001309,53.2161,153.0425,93.9775,266.1366,0.0012225,0.00019228,0.0,0 STARLINK-3685,1 52115U 22029AD  24061.48748743  .00019228  00000-0  12225-2 0  9993,2 52115  53.2161 153.0425 0001309  93.9775 266.1366 15.08852101109345,6917.843,95.437,540.614,538.803,0.0
52115.0,STARLINK-3685,PAYLOAD,2024-03-01 13:17:22,15.08853325,0.0001321,53.2163,152.7449,95.2355,264.8788,0.0014489,0.00022855,0.0,0 STARLINK-3685,1 52115U 22029AD  24061.55372705  .00022855  00000-0  14489-2 0  9996,2 52115  53.2163 152.7449 0001321  95.2355 264.8788 15.08853325109355,6917.84,95.437,540.619,538.791,0.0
52115.0,STARLINK-3685,PAYLOAD,2024-03-01 16:28:08,15.0886043,0.0001423,53.2167,152.1498,89.9254,270.1901,0.0015954,0.00025208,0.0,0 STARLINK-3685,1 52115U 22029AD  24061.68620545  .00025208  00000-0  15954-2 0  9991,2 52115  53.2167 152.1498 0001423  89.9254 270.1901 15.08860430109372,6917.818,95.436,540.667,538.699,0.0
52115.0,STARLINK-3685,PAYLOAD,2024-03-02 11:32:45,15.08848492,0.0001534,53.2155,148.5783,96.3157,263.801,0.00074426,0.00011579,0.0,0 STARLINK-3685,1 52115U 22029AD  24062.48108554  .00011579  00000-0  74426-3 0  9997,2 52115  53.2155 148.5783 0001534  96.3157 263.8010 15.08848492109499,6917.854,95.437,540.781,538.658,0.0
